CCSDS_OMM_VERS = 2.0
CREATION_DATE  = 
ORIGINATOR     = 

OBJECT_NAME    = ELECTRON R/B
OBJECT_ID      = 2025-307C
CENTER_NAME    = EARTH
REF_FRAME      = TEME
TIME_SYSTEM    = UTC
MEAN_ELEMENT_THEORY = SGP/SGP4

EPOCH          = 2025-12-21T08:41:59.140320
MEAN_MOTION    = 15.55087105
ECCENTRICITY   = .02614087
INCLINATION    = 41.9820
RA_OF_ASC_NODE = 123.1026
ARG_OF_PERICENTER = 268.1410
MEAN_ANOMALY   = 88.9482

EPHEMERIS_TYPE = 0
CLASSIFICATION_TYPE = U
NORAD_CAT_ID   = 67230
ELEMENT_SET_NO = 999
REV_AT_EPOCH   = 1
BSTAR          = .20247584E-3
MEAN_MOTION_DOT = .71881E-3
MEAN_MOTION_DDOT = .8106877E-5

CCSDS_OMM_VERS = 2.0
CREATION_DATE  = 
ORIGINATOR     = 

OBJECT_NAME    = SPACEMOBILE-006
OBJECT_ID      = 2025-309A
CENTER_NAME    = EARTH
REF_FRAME      = TEME
TIME_SYSTEM    = UTC
MEAN_ELEMENT_THEORY = SGP/SGP4

EPOCH          = 2025-12-26T18:03:01.821888
MEAN_MOTION    = 15.17699903
ECCENTRICITY   = .00104773
INCLINATION    = 53.0002
RA_OF_ASC_NODE = 40.8851
ARG_OF_PERICENTER = 329.2446
MEAN_ANOMALY   = 30.7932

EPHEMERIS_TYPE = 0
CLASSIFICATION_TYPE = U
NORAD_CAT_ID   = 67232
ELEMENT_SET_NO = 999
REV_AT_EPOCH   = 40
BSTAR          = .7265072E-4
MEAN_MOTION_DOT = .1165E-4
MEAN_MOTION_DDOT = 0

CCSDS_OMM_VERS = 2.0
CREATION_DATE  = 
ORIGINATOR     = 

OBJECT_NAME    = LVM3 R/B
OBJECT_ID      = 2025-309B
CENTER_NAME    = EARTH
REF_FRAME      = TEME
TIME_SYSTEM    = UTC
MEAN_ELEMENT_THEORY = SGP/SGP4

EPOCH          = 2025-12-26T17:58:57.873216
MEAN_MOTION    = 15.19340101
ECCENTRICITY   = .0010474
INCLINATION    = 52.9350
RA_OF_ASC_NODE = 40.7629
ARG_OF_PERICENTER = 355.6984
MEAN_ANOMALY   = 4.3917

EPHEMERIS_TYPE = 0
CLASSIFICATION_TYPE = U
NORAD_CAT_ID   = 67233
ELEMENT_SET_NO = 999
REV_AT_EPOCH   = 40
BSTAR          = .72626686E-4
MEAN_MOTION_DOT = .1231E-4
MEAN_MOTION_DDOT = 0

CCSDS_OMM_VERS = 2.0
CREATION_DATE  = 
ORIGINATOR     = 

OBJECT_NAME    = 2025-310A
OBJECT_ID      = 2025-310A
CENTER_NAME    = EARTH
REF_FRAME      = TEME
TIME_SYSTEM    = UTC
MEAN_ELEMENT_THEORY = SGP/SGP4

EPOCH          = 2025-12-29T07:34:01.252992
MEAN_MOTION    = 15.11166232
ECCENTRICITY   = .01518002
INCLINATION    = 97.9653
RA_OF_ASC_NODE = 8.0682
ARG_OF_PERICENTER = 69.0443
MEAN_ANOMALY   = 292.6954

EPHEMERIS_TYPE = 0
CLASSIFICATION_TYPE = U
NORAD_CAT_ID   = 67234
ELEMENT_SET_NO = 999
REV_AT_EPOCH   = 57
BSTAR          = .13913561E-3
MEAN_MOTION_DOT = .2997E-4
MEAN_MOTION_DDOT = 0

CCSDS_OMM_VERS = 2.0
CREATION_DATE  = 
ORIGINATOR     = 

OBJECT_NAME    = SL-4 R/B
OBJECT_ID      = 2025-310B
CENTER_NAME    = EARTH
REF_FRAME      = TEME
TIME_SYSTEM    = UTC
MEAN_ELEMENT_THEORY = SGP/SGP4

EPOCH          = 2025-12-30T11:50:53.879424
MEAN_MOTION    = 15.49853307
ECCENTRICITY   = .03010177
INCLINATION    = 97.9705
RA_OF_ASC_NODE = 9.5182
ARG_OF_PERICENTER = 59.2140
MEAN_ANOMALY   = 303.8374

EPHEMERIS_TYPE = 0
CLASSIFICATION_TYPE = U
NORAD_CAT_ID   = 67235
ELEMENT_SET_NO = 999
REV_AT_EPOCH   = 76
BSTAR          = .30187143E-3
MEAN_MOTION_DOT = .129049E-2
MEAN_MOTION_DDOT = .2203184E-5

CCSDS_OMM_VERS = 2.0
CREATION_DATE  = 
ORIGINATOR     = 

OBJECT_NAME    = FENGYUN 4C
OBJECT_ID      = 2025-312A
CENTER_NAME    = EARTH
REF_FRAME      = TEME
TIME_SYSTEM    = UTC
MEAN_ELEMENT_THEORY = SGP/SGP4

EPOCH          = 2025-12-26T21:48:20.798784
MEAN_MOTION    = 2.27841578
ECCENTRICITY   = .7309751
INCLINATION    = 28.4641
RA_OF_ASC_NODE = 334.3215
ARG_OF_PERICENTER = 179.7824
MEAN_ANOMALY   = 181.1675

EPHEMERIS_TYPE = 0
CLASSIFICATION_TYPE = U
NORAD_CAT_ID   = 67246
ELEMENT_SET_NO = 999
REV_AT_EPOCH   = 1
BSTAR          = .21251E-2
MEAN_MOTION_DOT = .39214E-3
MEAN_MOTION_DDOT = .41525E-6

CCSDS_OMM_VERS = 2.0
CREATION_DATE  = 
ORIGINATOR     = 

OBJECT_NAME    = CZ-3B R/B
OBJECT_ID      = 2025-312B
CENTER_NAME    = EARTH
REF_FRAME      = TEME
TIME_SYSTEM    = UTC
MEAN_ELEMENT_THEORY = SGP/SGP4

EPOCH          = 2025-12-31T01:49:36.170976
MEAN_MOTION    = 2.39319155
ECCENTRICITY   = .7239869
INCLINATION    = 28.4435
RA_OF_ASC_NODE = 332.6557
ARG_OF_PERICENTER = 181.6731
MEAN_ANOMALY   = 173.0291

EPHEMERIS_TYPE = 0
CLASSIFICATION_TYPE = U
NORAD_CAT_ID   = 67247
ELEMENT_SET_NO = 999
REV_AT_EPOCH   = 10
BSTAR          = .47663E-3
MEAN_MOTION_DOT = .115154E-2
MEAN_MOTION_DDOT = -.87386E-6

CCSDS_OMM_VERS = 2.0
CREATION_DATE  = 
ORIGINATOR     = 

OBJECT_NAME    = TIANHUI 7
OBJECT_ID      = 2025-314A
CENTER_NAME    = EARTH
REF_FRAME      = TEME
TIME_SYSTEM    = UTC
MEAN_ELEMENT_THEORY = SGP/SGP4

EPOCH          = 2025-12-30T13:07:35.578848
MEAN_MOTION    = 15.26852571
ECCENTRICITY   = .0006247
INCLINATION    = 97.4218
RA_OF_ASC_NODE = 76.7599
ARG_OF_PERICENTER = 231.9255
MEAN_ANOMALY   = 128.1421

EPHEMERIS_TYPE = 0
CLASSIFICATION_TYPE = U
NORAD_CAT_ID   = 67300
ELEMENT_SET_NO = 999
REV_AT_EPOCH   = 7
BSTAR          = .15763E-3
MEAN_MOTION_DOT = .4086E-4
MEAN_MOTION_DDOT = 0

CCSDS_OMM_VERS = 2.0
CREATION_DATE  = 
ORIGINATOR     = 

OBJECT_NAME    = CZ-4B R/B
OBJECT_ID      = 2025-314B
CENTER_NAME    = EARTH
REF_FRAME      = TEME
TIME_SYSTEM    = UTC
MEAN_ELEMENT_THEORY = SGP/SGP4

EPOCH          = 2025-12-30T12:55:01.037280
MEAN_MOTION    = 15.65683130
ECCENTRICITY   = .0149504
INCLINATION    = 97.3764
RA_OF_ASC_NODE = 76.7585
ARG_OF_PERICENTER = 17.3840
MEAN_ANOMALY   = 343.2459

EPHEMERIS_TYPE = 0
CLASSIFICATION_TYPE = U
NORAD_CAT_ID   = 67301
ELEMENT_SET_NO = 999
REV_AT_EPOCH   = 2
BSTAR          = .57509E-3
MEAN_MOTION_DOT = .106268E-2
MEAN_MOTION_DDOT = .52323E-5

CCSDS_OMM_VERS = 2.0
CREATION_DATE  = 
ORIGINATOR     = 

OBJECT_NAME    = 2025-315A
OBJECT_ID      = 2025-315A
CENTER_NAME    = EARTH
REF_FRAME      = TEME
TIME_SYSTEM    = UTC
MEAN_ELEMENT_THEORY = SGP/SGP4

EPOCH          = 2025-12-31T05:10:41.250144
MEAN_MOTION    = 2.27494845
ECCENTRICITY   = .727821
INCLINATION    = 19.4155
RA_OF_ASC_NODE = 100.6045
ARG_OF_PERICENTER = 179.7216
MEAN_ANOMALY   = 207.2594

EPHEMERIS_TYPE = 0
CLASSIFICATION_TYPE = U
NORAD_CAT_ID   = 67302
ELEMENT_SET_NO = 999
REV_AT_EPOCH   = 2
BSTAR          = .97608E-3
MEAN_MOTION_DOT = .204E-4
MEAN_MOTION_DDOT = 0

